#dP2019  3 19  0  0  0.00000000      96 __u+U ITR00 FIT  IAC
## 2045 172800.00000000   900.00000000 58561 0.0000000000000
+   93   C01C02C03C05C06C07C08C09C10C11C12C13C14C16E01E02E03
+        E04E05E07E08E09E11E12E13E14E15E18E19E21E24E25E26E27
+        E30E31E33E36G01G02G03G04G05G06G07G08G09G10G11G12G13
+        G14G15G16G17G18G19G20G21G22G23G24G25G26G27G28G29G30
+        G31G32R01R02R03R04R05R07R08R09R10R11R13R14R15R16R17
+        R18R19R20R21R22R23R24R26  0  0  0  0  0  0  0  0  0
++        12 11 12 11  8  9  9  8  8  8  8  8  8  8  5  5  5
++         5  6  6  6  5  5  5  6  8  6  6  5  6  5  5  6  6
++         6  6  5  5  4  4  4  5  4  3  4  4  4  4  4  3  4
++         4  4  4  3  3  3  4  4  3  4  4  3  4  4  4  4  4
++         4  4  6  5  5  5  5  5  6  6  5  5  6  5  5  5  6
++         5  5  5  5  6  6  6  9  0  0  0  0  0  0  0  0  0
%c M  cc GPS ccc cccc cccc cccc cccc ccccc ccccc ccccc ccccc
%c cc cc ccc ccc cccc cccc cccc cccc ccccc ccccc ccccc ccccc
%f  0.0000000  0.000000000  0.00000000000  0.000000000000000
%f  0.0000000  0.000000000  0.00000000000  0.000000000000000
%i    0    0    0    0      0      0      0      0         0
%i    0    0    0    0      0      0      0      0         0
/*                                                          
/*   RSA / INFORMATION & ANALYSIS CENTER (IAC) OF MCC       
/*   ULTRA-RAPID DETERMINATION                              
/* PCV:IGS14_2038 OL/AL:FES2004  NONE     YN ORB:CoN CLK:CoN
*  2019 03 19 17 30  0.00000000
PC01 -32290.618276  27105.438049   -337.583667    350.997582
PC02   4451.571290  41932.663134   1213.774696   -387.065285
PC03 -14849.516175  39501.568371    205.961698    -29.287215
PC05  21856.944675  36049.417439   1332.367429   -137.781841
PC06 -17135.372865  38263.540997   6319.906078    554.460600
PC07  -8273.762600  26284.006450 -31675.807184     88.809522
PC08 -24044.914550  22222.640178  26493.511571    131.807394
PC09  -8623.736830  40560.898579  -8379.685288    618.251450
PC10   4372.397739  32419.044323 -26266.414964   -588.125351
PC11   1749.318183  18330.988004  21009.334680    -58.798028
PC12 -19554.567657  19797.105510  -1395.633506    505.275600
PC13  -8676.908384  24786.785411  32986.786996   -602.531460
PC14   2305.163856  26559.712790   8392.617347    749.166830
PC16 -14036.650616  39781.961654   2526.848650   -395.321384
PE01  22540.364892  18822.227027  -3737.394659   -565.529594
PE02 -22564.036994 -18789.923525   3678.112038     52.182294
PE03 -11697.843684 -19584.293625  18870.794160   -145.674576
PE04  17246.787536  -1639.866901 -23995.734679   -243.675287
PE05    748.606136 -29472.642651   2646.816791     88.898009
PE07 -12712.754262  22079.972972  15068.718611   -152.230159
PE08 -17095.544380   1886.370796  24093.784623   6386.275278
PE09  12419.955382 -22226.665927 -15101.511776   6495.402359
PE11  22335.735459 -17251.168429  -8883.402886   5714.612191
PE12  27194.238860  -5334.232504  10378.923290   6408.313769
PE13 -22385.758177  17290.963979   8753.004826    384.429747
PE14  17682.026380  -7713.252545  14221.750653 999999.999999
PE15 -27228.375789   5789.318645 -10063.264352    916.655086
PE18 -22926.018834   2607.346951 -22509.375718   -596.854408
PE19  10623.105324  21214.826796 -17698.142582     -7.636584
PE21   6547.387493  20725.047547 -20102.402699   -524.861272
PE24  12904.220950 -10659.402919  24399.692988   6177.072172
PE25  -6501.133683 -20709.479473  20123.692202   1860.647920
PE26  -4557.194842  18822.635388  22396.461700   4780.224185
PE27 -13198.848452  10383.734445 -24376.875419    507.307584
PE30 -25051.422116  -5821.092490 -14655.667467   5020.066377
PE31  25177.263517   6033.147733  14349.121613    879.043164
PE33  16132.525018   9163.008058  23073.731077    847.946905
PE36   4414.341995 -18699.685383 -22501.266070    734.586188
PG01  -9576.642721 -13578.547097 -20964.895054   -184.013535
PG02 -14349.000743  14545.376190  17485.060683   -167.575770
PG03 -12073.212177 -23268.572206  -4556.022656    186.811187
PG04 -15488.156056  -2673.897302  21423.205752    136.383028
PG05  -3869.236610  17910.087438  19037.174991      1.177532
PG06 -24083.201129   7607.155830   8317.178329    251.409259
PG07 -22289.906121  -7738.758231  12891.357137     11.828618
PG08   4330.898948 -24413.175382  -9198.578945   -136.759511
PG09 -12843.978296  -8673.661462  21524.856151    442.719303
PG10  18199.542589   2947.745373 -19130.996401     93.561442
PG11  -4193.720227 -16448.718201 -20990.594322   -642.213783
PG12   9639.347038  24166.756940  -6011.647717    258.757578
PG13 -12382.712551  23289.056156  -3048.807658    -71.112791
PG14  18025.107875 -15680.446661 -11097.822399    -87.749832
PG15   -255.899032  24145.581034 -10864.671055   -322.754665
PG16   3717.147730 -18357.133745  18462.905214    -26.521397
PG17 -17676.285108   7666.120635 -17834.993535     25.859583
PG18   1390.883607 -15784.415311 -21788.675042     36.303995
PG19 -18562.569657  14868.657741 -12216.507009   -340.488377
PG20  21275.224526  10612.221571 -12091.594808    523.240989
PG21  24292.044244   4311.028126  10466.216494   -229.372591
PG22  -7173.759917 -22806.439026 -11392.193361   -667.393902
PG23  -5708.589735 -18842.478267  17955.719933   -193.445480
PG24   5499.815359  15061.485495 -21357.278455    -63.606203
PG25  17373.588969  19630.978370   4860.346061   -735.141451
PG26  11634.014130 -10136.364031  21592.843214    153.462032
PG27  11831.509649 -23575.992460    860.548889    -89.576023
PG28 -17401.370983  -5686.206866 -18602.152486    766.541075
PG29   8072.421747  14074.729788  21001.927095    245.639181
PG30 -26579.610311   -571.539279   1987.085644    -71.281848
PG31  23885.083744  -7706.087022   9346.792035     51.042455
PG32  17801.139917 -10883.539552 -16324.916352   -173.360945
PR01  -2770.165556  22384.360821  11901.535773     41.063239
PR02   6624.758166  23234.104497  -8224.900494    359.538876
PR03  11164.690962   9232.680045 -20966.010672     -7.493509
PR04   8947.695811 -10677.339848 -21347.404998    299.180351
PR05   1806.082324 -23456.162589  -9824.654667     24.381345
PR07 -11216.557208  -8614.283125  21254.744183    -60.188339
PR08  -9214.176503   9916.445752  21674.253423     18.589252
PR09 -16839.214038 -14176.005641  12955.202425     59.935329
PR10 -23669.954006  -9345.124472  -2292.435828     45.449047
PR11 -17839.158650   1806.944584 -18153.084787    -60.203266
PR13  15857.697552  13951.913754 -14324.939080    -21.427684
PR14  23719.904369   9080.196888   2323.345037     37.068200
PR15  18351.747810  -1149.000762  17697.404214    100.732306
PR16   2336.081696 -10931.654150  22894.139882     10.672550
PR17  16461.972928  -1064.234460  19480.511279    213.392883
PR18  21396.158766 -12619.542673   5668.489696     37.187213
PR19  15241.774085 -17022.416317 -11328.545444     48.532366
PR20  -1555.264065 -11401.783876 -22745.463912   -372.256178
PR21 -16748.710762   1552.866172 -19163.348826    -37.465836
PR22 -21254.919707  13904.499986  -3013.952376    -10.223331
PR23 -11164.959394  16900.035703  15508.284856    216.330005
PR24   3247.918441  10495.521769  23003.121628   -178.376943
PR26    476.398385 -12737.575291 -22082.581675      2.434530
EOF
